NORAD_CAT_ID,OBJECT_NAME,OBJECT_TYPE,EPOCH,MEAN_MOTION,ECCENTRICITY,INCLINATION,RA_OF_ASC_NODE,ARG_OF_PERICENTER,MEAN_ANOMALY,BSTAR,MEAN_MOTION_DOT,MEAN_MOTION_DDOT,TLE_LINE0,TLE_LINE1,TLE_LINE2,SEMIMAJOR_AXIS,PERIOD,APOGEE,PERIGEE,DECAYED
49736.0,STARLINK-3148,PAYLOAD,2024-07-03 19:36:57,15.08833993,0.0001096,53.2161,24.7857,86.7547,273.357,2.5227e-05,1.14e-06,0.0,0 STARLINK-3148,1 49736U 21115N   24185.81733494  .00000114  00000-0  25227-4 0  9996,2 49736  53.2161  24.7857 0001096  86.7547 273.3570 15.08833993142862,6917.899,95.438,540.522,539.006,0.0
49736.0,STARLINK-3148,PAYLOAD,2024-07-04 06:44:39,15.08843457,0.0001215,53.2178,22.7045,80.0483,280.0647,3.2528e-05,2.3e-06,0.0,0 STARLINK-3148,1 49736U 21115N   24186.28100882  .00000230  00000-0  32528-4 0  9998,2 49736  53.2178  22.7045 0001215  80.0483 280.0647 15.08843457144044,6917.87,95.437,540.575,538.894,0.0
49736.0,STARLINK-3148,PAYLOAD,2024-07-04 22:38:30,15.08838118,0.000126,53.2195,19.7272,106.9318,253.1813,0.00019014,2.739e-05,0.0,0 STARLINK-3148,1 49736U 21115N   24186.94340648  .00002739  00000-0  19014-3 0  9997,2 49736  53.2195  19.7272 0001260 106.9318 253.1813 15.08838118143038,6917.886,95.438,540.623,538.879,0.0
49736.0,STARLINK-3148,PAYLOAD,2024-07-05 19:18:31,15.08840397,0.000115,53.2178,15.8639,85.7302,274.3821,7.5985e-05,9.22e-06,0.0,0 STARLINK-3148,1 49736U 21115N   24187.80452987  .00000922  00000-0  75985-4 0  9995,2 49736  53.2178  15.8639 0001150  85.7302 274.3821 15.08840397144271,6917.879,95.438,540.54,538.949,0.0
49736.0,STARLINK-3148,PAYLOAD,2024-07-05 22:29:17,15.08846361,0.0001265,53.2188,15.2684,88.2242,271.8895,6.0703e-05,6.78e-06,0.0,0 STARLINK-3148,1 49736U 21115N   24187.93700647  .00000678  00000-0  60703-4 0  9998,2 49736  53.2188  15.2684 0001265  88.2242 271.8895 15.08846361143183,6917.861,95.437,540.601,538.851,0.0
49736.0,STARLINK-3148,PAYLOAD,2024-07-06 12:47:46,15.08834486,0.0001236,53.2184,12.5884,100.4932,259.62,-3.2297e-05,-8.02e-06,0.0,0 STARLINK-3148,1 49736U 21115N   24188.53317658 -.00000802  00000-0 -32297-4 0  9999,2 49736  53.2184  12.5884 0001236 100.4932 259.6200 15.08834486144384,6917.897,95.438,540.617,538.907,0.0
49736.0,STARLINK-3148,PAYLOAD,2024-07-06 19:09:18,15.08835757,0.0001123,53.219,11.4051,86.7105,273.4015,2.4265e-05,9.8e-07,0.0,0 STARLINK-3148,1 49736U 21115N   24188.79813495  .00000098  00000-0  24265-4 0  9998,2 49736  53.2190  11.4051 0001123  86.7105 273.4015 15.08835757143310,6917.893,95.438,540.535,538.981,0.0
49736.0,STARLINK-3148,PAYLOAD,2024-07-07 12:38:33,15.08837187,0.0001123,53.2182,8.1335,84.3074,275.8047,-2.1076e-05,-6.23e-06,0.0,0 STARLINK-3148,1 49736U 21115N   24189.52677755 -.00000623  00000-0 -21076-4 0  9990,2 49736  53.2182   8.1335 0001123  84.3074 275.8047 15.08837187143420,6917.889,95.438,540.531,538.977,0.0
49736.0,STARLINK-3148,PAYLOAD,2024-07-07 17:24:42,15.08842534,0.0001162,53.2185,7.2424,83.5658,276.5466,1.2409e-05,-9e-07,0.0,0 STARLINK-3148,1 49736U 21115N   24189.72549354 -.00000090  00000-0  12409-4 0  9992,2 49736  53.2185   7.2424 0001162  83.5658 276.5466 15.08842534144565,6917.873,95.437,540.542,538.934,0.0
49736.0,STARLINK-3148,PAYLOAD,2024-07-08 10:53:57,15.08834943,0.0001221,53.2188,3.9735,93.5979,266.5152,0.00010398,1.367e-05,0.0,0 STARLINK-3148,1 49736U 21115N   24190.45413535  .00001367  00000-0  10398-3 0  9996,2 49736  53.2188   3.9735 0001221  93.5979 266.5152 15.08834943143564,6917.896,95.438,540.606,538.916,0.0
49736.0,STARLINK-3148,PAYLOAD,2024-07-08 18:50:53,15.08835672,0.0001205,53.2191,2.4864,96.0886,264.0243,5.0085e-05,5.09e-06,0.0,0 STARLINK-3148,1 49736U 21115N   24190.78533815  .00000509  00000-0  50085-4 0  9991,2 49736  53.2191   2.4864 0001205  96.0886 264.0243 15.08835672144725,6917.894,95.438,540.592,538.925,0.0
49736.0,STARLINK-3148,PAYLOAD,2024-07-09 10:44:44,15.08834835,0.0001172,53.219,359.5117,90.8543,269.2584,2.8057e-05,1.59e-06,0.0,0 STARLINK-3148,1 49736U 21115N   24191.44774086  .00000159  00000-0  28057-4 0  9997,2 49736  53.2190 359.5117 0001172  90.8543 269.2584 15.08834835143719,6917.896,95.438,540.572,538.95,0.0
49736.0,STARLINK-3148,PAYLOAD,2024-07-09 18:41:40,15.08842562,0.000112,53.2182,358.024,86.5828,273.5292,2.4127e-05,9.6e-07,0.0,0 STARLINK-3148,1 49736U 21115N   24191.77893708  .00000096  00000-0  24127-4 0  9990,2 49736  53.2182 358.0240 0001120  86.5828 273.5292 15.08842562143767,6917.873,95.437,540.512,538.963,0.0
49736.0,STARLINK-3148,PAYLOAD,2024-07-10 04:13:59,15.08840786,0.0001157,53.2185,356.2397,80.9748,279.1376,1.7069e-05,-1.6e-07,0.0,0 STARLINK-3148,1 49736U 21115N   24192.17637837 -.00000016  00000-0  17069-4 0  9994,2 49736  53.2185 356.2397 0001157  80.9748 279.1376 15.08840786144933,6917.878,95.438,540.543,538.943,0.0
49736.0,STARLINK-3148,PAYLOAD,2024-07-10 10:35:31,15.08835473,0.000124,53.2188,355.0508,84.0437,276.0696,6.2685e-05,7.1e-06,0.0,0 STARLINK-3148,1 49736U 21115N   24192.44134092  .00000710  00000-0  62685-4 0  9993,2 49736  53.2188 355.0508 0001240  84.0437 276.0696 15.08835473143869,6917.894,95.438,540.617,538.901,0.0
49736.0,STARLINK-3148,PAYLOAD,2024-07-10 20:07:50,15.08842796,0.0001267,53.2194,353.2668,81.0124,279.1012,9.5809e-05,1.237e-05,0.0,0 STARLINK-3148,1 49736U 21115N   24192.83877595  .00001237  00000-0  95809-4 0  9997,2 49736  53.2194 353.2668 0001267  81.0124 279.1012 15.08842796143921,6917.872,95.437,540.613,538.86,0.0
49736.0,STARLINK-3148,PAYLOAD,2024-07-11 10:26:18,15.08839403,0.000125,53.2174,350.5903,83.0155,277.0979,7.0064e-05,8.27e-06,0.0,0 STARLINK-3148,1 49736U 21115N   24193.43493839  .00000827  00000-0  70064-4 0  9999,2 49736  53.2174 350.5903 0001250  83.0155 277.0979 15.08839403144010,6917.882,95.438,540.612,538.882,0.0
49736.0,STARLINK-3148,PAYLOAD,2024-07-12 03:55:32,15.08844102,0.0001367,53.2166,347.3189,75.3712,284.7431,5.4543e-05,5.8e-06,0.0,0 STARLINK-3148,1 49736U 21115N   24194.16357568  .00000580  00000-0  54543-4 0  9998,2 49736  53.2166 347.3189 0001367  75.3712 284.7431 15.08844102144125,6917.868,95.437,540.679,538.787,0.0
49736.0,STARLINK-3148,PAYLOAD,2024-07-12 16:38:38,15.08842606,0.0001515,53.2171,344.9391,92.4774,267.6392,4.7414e-05,4.67e-06,0.0,0 STARLINK-3148,1 49736U 21115N   24194.69349674  .00000467  00000-0  47414-4 0  9998,2 49736  53.2171 344.9391 0001515  92.4774 267.6392 15.08842606145317,6917.872,95.437,540.785,538.689,0.0
49736.0,STARLINK-3148,PAYLOAD,2024-07-13 14:54:02,15.08843605,0.0001241,53.2188,340.7757,101.9295,258.1836,3.7645e-06,-2.28e-06,0.0,0 STARLINK-3148,1 49736U 21115N   24195.62085708 -.00000228  00000-0  37645-5 0  9999,2 49736  53.2188 340.7757 0001241 101.9295 258.1836 15.08843605144345,6917.869,95.437,540.593,538.876,0.0
49736.0,STARLINK-3148,PAYLOAD,2024-07-13 16:29:25,15.08846021,0.0001233,53.2185,340.4774,105.034,255.0788,1.5304e-05,-4.4e-07,0.0,0 STARLINK-3148,1 49736U 21115N   24195.68709518 -.00000044  00000-0  15304-4 0  9990,2 49736  53.2185 340.4774 0001233 105.0340 255.0788 15.08846021144353,6917.862,95.437,540.58,538.874,0.0
49736.0,STARLINK-3148,PAYLOAD,2024-07-14 13:09:26,15.08834432,0.0001226,53.2173,336.6136,93.215,266.8982,5.9893e-05,6.65e-06,0.0,0 STARLINK-3148,1 49736U 21115N   24196.54822393  .00000665  00000-0  59893-4 0  9992,2 49736  53.2173 336.6136 0001226  93.2150 266.8982 15.08834432145594,6917.897,95.438,540.611,538.914,0.0
49736.0,STARLINK-3148,PAYLOAD,2024-07-14 14:44:49,15.08835119,0.0001228,53.218,336.3165,92.8024,267.3108,6.5441e-05,7.54e-06,0.0,0 STARLINK-3148,1 49736U 21115N   24196.61446343  .00000754  00000-0  65441-4 0  9992,2 49736  53.2180 336.3165 0001228  92.8024 267.3108 15.08835119144495,6917.895,95.438,540.61,538.911,0.0
49736.0,STARLINK-3148,PAYLOAD,2024-07-14 16:20:12,15.08839597,0.0001257,53.2187,336.0204,90.8198,269.2938,7.1271e-05,8.47e-06,0.0,0 STARLINK-3148,1 49736U 21115N   24196.68070084  .00000847  00000-0  71271-4 0  9995,2 49736  53.2187 336.0204 0001257  90.8198 269.2938 15.08839597144503,6917.882,95.438,540.616,538.877,0.0
49736.0,STARLINK-3148,PAYLOAD,2024-07-15 14:35:36,15.08841483,0.0001352,53.2196,331.8561,80.3932,279.7213,7.4964e-05,9.05e-06,0.0,0 STARLINK-3148,1 49736U 21115N   24197.60806284  .00000905  00000-0  74964-4 0  9994,2 49736  53.2196 331.8561 0001352  80.3932 279.7213 15.08841483144642,6917.876,95.437,540.676,538.806,0.0
49736.0,STARLINK-3148,PAYLOAD,2024-07-15 16:10:59,15.08845946,0.0001281,53.22,331.5618,95.7132,264.4006,0.00012264,1.665e-05,0.0,0 STARLINK-3148,1 49736U 21115N   24197.67429897  .00001665  00000-0  12264-3 0  9990,2 49736  53.2200 331.5618 0001281  95.7132 264.4006 15.08845946145764,6917.862,95.437,540.613,538.841,0.0
49736.0,STARLINK-3148,PAYLOAD,2024-07-16 01:43:18,15.0883825,0.0001194,53.218,329.775,93.7761,266.3368,7.1133e-05,8.44e-06,0.0,0 STARLINK-3148,1 49736U 21115N   24198.07174331  .00000844  00000-0  71133-4 0  9994,2 49736  53.2180 329.7750 0001194  93.7761 266.3368 15.08838250145825,6917.886,95.438,540.577,538.925,0.0
49736.0,STARLINK-3148,PAYLOAD,2024-07-16 14:26:23,15.0884403,0.00013,53.2187,327.3972,94.6085,265.5055,9.5564e-05,1.233e-05,0.0,0 STARLINK-3148,1 49736U 21115N   24198.60166013  .00001233  00000-0  95564-4 0  9998,2 49736  53.2187 327.3972 0001300  94.6085 265.5055 15.08844030144792,6917.868,95.437,540.632,538.834,0.0
49736.0,STARLINK-3148,PAYLOAD,2024-07-16 16:01:45,15.08856238,0.0001157,53.2189,327.0986,83.2915,276.8209,0.00017974,2.575e-05,0.0,0 STARLINK-3148,1 49736U 21115N   24198.66788959  .00002575  00000-0  17974-3 0  9991,2 49736  53.2189 327.0986 0001157  83.2915 276.8209 15.08856238145916,6917.831,95.437,540.496,538.895,0.0
49736.0,STARLINK-3148,PAYLOAD,2024-07-17 12:41:48,15.08834014,0.0001228,53.219,323.2304,81.1422,278.9709,1.194e-05,-9.8e-07,0.0,0 STARLINK-3148,1 49736U 21115N   24199.52903159 -.00000098  00000-0  11940-4 0  9995,2 49736  53.2190 323.2304 0001228  81.1422 278.9709 15.08834014146040,6917.899,95.438,540.613,538.914,0.0
